[{"OBJECT_NAME":"STARLINK-1669","OBJECT_ID":"2021-012E","EPOCH":"2026-03-09T22:00:01.999584","MEAN_MOTION":15.7520865,"ECCENTRICITY":0.00087944,"INCLINATION":53.0368,"RA_OF_ASC_NODE":350.7855,"ARG_OF_PERICENTER":92.6287,"MEAN_ANOMALY":29.9444,"EPHEMERIS_TYPE":0,"CLASSIFICATION_TYPE":"U","NORAD_CAT_ID":47624,"ELEMENT_SET_NO":999,"REV_AT_EPOCH":578,"BSTAR":0.0017201852,"MEAN_MOTION_DOT":0.00271838,"MEAN_MOTION_DDOT":0},{"OBJECT_NAME":"STARLINK-36344","OBJECT_ID":"2026-025T","EPOCH":"2026-03-09T19:23:36.301920","MEAN_MOTION":15.75352511,"ECCENTRICITY":0.00023733,"INCLINATION":97.2844,"RA_OF_ASC_NODE":180.4676,"ARG_OF_PERICENTER":35.9158,"MEAN_ANOMALY":324.2266,"EPHEMERIS_TYPE":0,"CLASSIFICATION_TYPE":"U","NORAD_CAT_ID":67710,"ELEMENT_SET_NO":999,"REV_AT_EPOCH":597,"BSTAR":0.0026124454,"MEAN_MOTION_DOT":0.00411803,"MEAN_MOTION_DDOT":0}]
